TIANQI-3G_L_00010001-01
1 10000U 25567XT  26075.70052083  .00000000  00000+0  00000-0 0  9990
2 10000  98.6000   0.0000 0000000   0.0000   0.0000 14.27529684    15
TIANQI-3G_L_00010001-02
1 10001U 26828AO  26075.70052083  .00000000  00000+0  00000-0 0  9992
2 10001  98.6000   0.0000 0000000   0.0000 120.0000 14.27529684    19
TIANQI-3G_L_00010001-03
1 10002U 24368SR  26075.70052083  .00000000  00000+0  00000-0 0  9990
2 10002  98.6000   0.0000 0000000   0.0000 240.0000 14.27529684    13
TIANQI-3G_L_00010002-01
1 10003U 22757MR  26075.70052083  .00000000  00000+0  00000-0 0  9991
2 10003  98.6000  20.0000 0000000   0.0000  26.6667 14.27529684    13
TIANQI-3G_L_00010002-02
1 10004U 22227IQ  26075.70052083  .00000000  00000+0  00000-0 0  9994
2 10004  98.6000  20.0000 0000000   0.0000 146.6667 14.27529684    17
TIANQI-3G_L_00010002-03
1 10005U 22394RB  26075.70052083  .00000000  00000+0  00000-0 0  9990
2 10005  98.6000  20.0000 0000000   0.0000 266.6667 14.27529684    11
TIANQI-3G_L_00010003-01
1 10006U 25971TF  26075.70052083  .00000000  00000+0  00000-0 0  9995
2 10006  98.6000  40.0000 0000000   0.0000  53.3333 14.27529684    15
TIANQI-3G_L_00010003-02
1 10007U 24340MS  26075.70052083  .00000000  00000+0  00000-0 0  9995
2 10007  98.6000  40.0000 0000000   0.0000 173.3333 14.27529684    19
TIANQI-3G_L_00010003-03
1 10008U 25118EK  26075.70052083  .00000000  00000+0  00000-0 0  9990
2 10008  98.6000  40.0000 0000000   0.0000 293.3333 14.27529684    13
TIANQI-3G_L_00010004-01
1 10009U 23559MJ  26075.70052083  .00000000  00000+0  00000-0 0  9998
2 10009  98.6000  60.0000 0000000   0.0000  80.0000 14.27529684    18
TIANQI-3G_L_00010004-02
1 10010U 25435VU  26075.70052083  .00000000  00000+0  00000-0 0  9995
2 10010  98.6000  60.0000 0000000   0.0000 200.0000 14.27529684    14
TIANQI-3G_L_00010004-03
1 10011U 26839RN  26075.70052083  .00000000  00000+0  00000-0 0  9995
2 10011  98.6000  60.0000 0000000   0.0000 320.0000 14.27529684    18
TIANQI-3G_L_00010005-01
1 10012U 23680CA  26075.70052083  .00000000  00000+0  00000-0 0  9997
2 10012  98.6000  80.0000 0000000   0.0000 106.6667 14.27529684    18
TIANQI-3G_L_00010005-02
1 10013U 26294UE  26075.70052083  .00000000  00000+0  00000-0 0  9992
2 10013  98.6000  80.0000 0000000   0.0000 226.6667 14.27529684    12
TIANQI-3G_L_00010005-03
1 10014U 24636CL  26075.70052083  .00000000  00000+0  00000-0 0  9991
2 10014  98.6000  80.0000 0000000   0.0000 346.6667 14.27529684    16
TIANQI-3G_L_00010006-01
1 10015U 26526CD  26075.70052083  .00000000  00000+0  00000-0 0  9992
2 10015  98.6000 100.0000 0000000   0.0000 133.3333 14.27529684    11
TIANQI-3G_L_00010006-02
1 10016U 25861HF  26075.70052083  .00000000  00000+0  00000-0 0  9994
2 10016  98.6000 100.0000 0000000   0.0000 253.3333 14.27529684    15
TIANQI-3G_L_00010006-03
1 10017U 25816ZX  26075.70052083  .00000000  00000+0  00000-0 0  9995
2 10017  98.6000 100.0000 0000000   0.0000  13.3333 14.27529684    10
TIANQI-3G_L_00010007-01
1 10018U 25127XH  26075.70052083  .00000000  00000+0  00000-0 0  9991
2 10018  98.6000 120.0000 0000000   0.0000 160.0000 14.27529684    14
TIANQI-3G_L_00010007-02
1 10019U 26167NF  26075.70052083  .00000000  00000+0  00000-0 0  9997
2 10019  98.6000 120.0000 0000000   0.0000 280.0000 14.27529684    18
TIANQI-3G_L_00010007-03
1 10020U 25947JT  26075.70052083  .00000000  00000+0  00000-0 0  9994
2 10020  98.6000 120.0000 0000000   0.0000  40.0000 14.27529684    14
TIANQI-3G_L_00010008-01
1 10021U 24260IA  26075.70052083  .00000000  00000+0  00000-0 0  9992
2 10021  98.6000 140.0000 0000000   0.0000 186.6667 14.27529684    13
TIANQI-3G_L_00010008-02
1 10022U 22600ZY  26075.70052083  .00000000  00000+0  00000-0 0  9999
2 10022  98.6000 140.0000 0000000   0.0000 306.6667 14.27529684    18
TIANQI-3G_L_00010008-03
1 10023U 26256A   26075.70052083  .00000000  00000+0  00000-0 0  9991
2 10023  98.6000 140.0000 0000000   0.0000  66.6667 14.27529684    12
TIANQI-3G_L_00010009-01
1 10024U 26865QK  26075.70052083  .00000000  00000+0  00000-0 0  9998
2 10024  98.6000 160.0000 0000000   0.0000 213.3333 14.27529684    16
TIANQI-3G_L_00010009-02
1 10025U 22901JJ  26075.70052083  .00000000  00000+0  00000-0 0  9996
2 10025  98.6000 160.0000 0000000   0.0000 333.3333 14.27529684    10
TIANQI-3G_L_00010009-03
1 10026U 24554OF  26075.70052083  .00000000  00000+0  00000-0 0  9993
2 10026  98.6000 160.0000 0000000   0.0000  93.3333 14.27529684    14
TIANQI-3G_L_00010010-01
1 10027U 26104ID  26075.70052083  .00000000  00000+0  00000-0 0  9997
2 10027  98.6000 180.0000 0000000   0.0000 240.0000 14.27529684    19
TIANQI-3G_L_00010010-02
1 10028U 23131RN  26075.70052083  .00000000  00000+0  00000-0 0  9995
2 10028  98.6000 180.0000 0000000   0.0000   0.0000 14.27529684    14
TIANQI-3G_L_00010010-03
1 10029U 23019AO  26075.70052083  .00000000  00000+0  00000-0 0  9991
2 10029  98.6000 180.0000 0000000   0.0000 120.0000 14.27529684    18
TIANQI-3G_L_00010011-01
1 10030U 26412BM  26075.70052083  .00000000  00000+0  00000-0 0  9993
2 10030  98.6000 200.0000 0000000   0.0000 266.6667 14.27529684    19
TIANQI-3G_L_00010011-02
1 10031U 26336BV  26075.70052083  .00000000  00000+0  00000-0 0  9999
2 10031  98.6000 200.0000 0000000   0.0000  26.6667 14.27529684    14
TIANQI-3G_L_00010011-03
1 10032U 23213WN  26075.70052083  .00000000  00000+0  00000-0 0  9991
2 10032  98.6000 200.0000 0000000   0.0000 146.6667 14.27529684    18
TIANQI-3G_L_00010012-01
1 10033U 22011QW  26075.70052083  .00000000  00000+0  00000-0 0  9997
2 10033  98.6000 220.0000 0000000   0.0000 293.3333 14.27529684    11
TIANQI-3G_L_00010012-02
1 10034U 25835SL  26075.70052083  .00000000  00000+0  00000-0 0  9995
2 10034  98.6000 220.0000 0000000   0.0000  53.3333 14.27529684    16
TIANQI-3G_L_00010012-03
1 10035U 24533RO  26075.70052083  .00000000  00000+0  00000-0 0  9990
2 10035  98.6000 220.0000 0000000   0.0000 173.3333 14.27529684    10
TIANQI-3G_L_00010013-01
1 10036U 26397JH  26075.70052083  .00000000  00000+0  00000-0 0  9991
2 10036  98.6000 240.0000 0000000   0.0000 320.0000 14.27529684    15
TIANQI-3G_L_00010013-02
1 10037U 26962LV  26075.70052083  .00000000  00000+0  00000-0 0  9990
2 10037  98.6000 240.0000 0000000   0.0000  80.0000 14.27529684    19
TIANQI-3G_L_00010013-03
1 10038U 22045DD  26075.70052083  .00000000  00000+0  00000-0 0  9999
2 10038  98.6000 240.0000 0000000   0.0000 200.0000 14.27529684    14
TIANQI-3G_L_00010014-01
1 10039U 25257UK  26075.70052083  .00000000  00000+0  00000-0 0  9998
2 10039  98.6000 260.0000 0000000   0.0000 346.6667 14.27529684    13
TIANQI-3G_L_00010014-02
1 10040U 24126OZ  26075.70052083  .00000000  00000+0  00000-0 0  9994
2 10040  98.6000 260.0000 0000000   0.0000 106.6667 14.27529684    19
TIANQI-3G_L_00010014-03
1 10041U 24931JB  26075.70052083  .00000000  00000+0  00000-0 0  9999
2 10041  98.6000 260.0000 0000000   0.0000 226.6667 14.27529684    13
TIANQI-3G_L_00010015-01
1 10042U 23525QM  26075.70052083  .00000000  00000+0  00000-0 0  9998
2 10042  98.6000 280.0000 0000000   0.0000  13.3333 14.27529684    17
TIANQI-3G_L_00010015-02
1 10043U 25160XM  26075.70052083  .00000000  00000+0  00000-0 0  9996
2 10043  98.6000 280.0000 0000000   0.0000 133.3333 14.27529684    11
TIANQI-3G_L_00010015-03
1 10044U 25362MV  26075.70052083  .00000000  00000+0  00000-0 0  9991
2 10044  98.6000 280.0000 0000000   0.0000 253.3333 14.27529684    15
TIANQI-3G_L_00010016-01
1 10045U 24665BG  26075.70052083  .00000000  00000+0  00000-0 0  9997
2 10045  98.6000 300.0000 0000000   0.0000  40.0000 14.27529684    11
TIANQI-3G_L_00010016-02
1 10046U 24884TL  26075.70052083  .00000000  00000+0  00000-0 0  9991
2 10046  98.6000 300.0000 0000000   0.0000 160.0000 14.27529684    15
TIANQI-3G_L_00010016-03
1 10047U 24358VC  26075.70052083  .00000000  00000+0  00000-0 0  9998
2 10047  98.6000 300.0000 0000000   0.0000 280.0000 14.27529684    19
TIANQI-3G_L_00010017-01
1 10048U 25234ZS  26075.70052083  .00000000  00000+0  00000-0 0  9993
2 10048  98.6000 320.0000 0000000   0.0000  66.6667 14.27529684    19
TIANQI-3G_L_00010017-02
1 10049U 23547XL  26075.70052083  .00000000  00000+0  00000-0 0  9999
2 10049  98.6000 320.0000 0000000   0.0000 186.6667 14.27529684    13
TIANQI-3G_L_00010017-03
1 10050U 25079SV  26075.70052083  .00000000  00000+0  00000-0 0  9993
2 10050  98.6000 320.0000 0000000   0.0000 306.6667 14.27529684    19
TIANQI-3G_L_00010018-01
1 10051U 24167MF  26075.70052083  .00000000  00000+0  00000-0 0  9991
2 10051  98.6000 340.0000 0000000   0.0000  93.3333 14.27529684    12
TIANQI-3G_L_00010018-02
1 10052U 25521BC  26075.70052083  .00000000  00000+0  00000-0 0  9997
2 10052  98.6000 340.0000 0000000   0.0000 213.3333 14.27529684    17
TIANQI-3G_L_00010018-03
1 10053U 23600QU  26075.70052083  .00000000  00000+0  00000-0 0  9994
2 10053  98.6000 340.0000 0000000   0.0000 333.3333 14.27529684    11
